QZS-1R                  
1 49336U 21096A   24117.26577234 -.00000193  00000+0  00000+0 0  9996
2 49336  35.8391  91.3129 0753008 270.4984  83.7787  1.00277350  9169
